{
  "norad_id": 48646,
  "name": "STARLINK-2732",
  "history": [
    {
      "epoch": "2026-03-28T20:24:56.721600Z",
      "apogee_km": 476.2069622831932,
      "perigee_km": 474.18618834517656,
      "latitude_deg": -6.22546377208829e-05,
      "longitude_deg": -107.60806759266303,
      "height_km": 476.3123688944,
      "semi_major_axis_km": 6853.333575314185,
      "eccentricity": 0.00014743,
      "inclination_deg": 53.1616,
      "raan_deg": 24.8935,
      "arg_perigee_deg": 102.4469,
      "mean_anomaly_deg": 257.6696,
      "mean_motion_rev_day": 15.30206194
    },
    {
      "epoch": "2026-03-29T02:41:09.003264Z",
      "apogee_km": 476.0548742959427,
      "perigee_km": 474.27712749751026,
      "latitude_deg": 3.8412961060527416e-05,
      "longitude_deg": 156.86973084121678,
      "height_km": 476.23822257733474,
      "semi_major_axis_km": 6853.303000896726,
      "eccentricity": 0.0001297,
      "inclination_deg": 53.1603,
      "raan_deg": 23.6799,
      "arg_perigee_deg": 101.2966,
      "mean_anomaly_deg": 258.8181,
      "mean_motion_rev_day": 15.30216434
    },
    {
      "epoch": "2026-03-30T02:11:57.693408Z",
      "apogee_km": 476.1409603597722,
      "perigee_km": 474.3248173392267,
      "latitude_deg": 5.193395637190813e-06,
      "longitude_deg": 158.65146488868646,
      "height_km": 476.30052834292087,
      "semi_major_axis_km": 6853.369888849499,
      "eccentricity": 0.0001325,
      "inclination_deg": 53.1607,
      "raan_deg": 19.1302,
      "arg_perigee_deg": 100.7604,
      "mean_anomaly_deg": 259.3546,
      "mean_motion_rev_day": 15.30194032
    },
    {
      "epoch": "2026-03-30T05:20:04.120224Z",
      "apogee_km": 476.06922543759265,
      "perigee_km": 474.3956326230227,
      "latitude_deg": -1.2251120181357313e-05,
      "longitude_deg": 110.88861889876695,
      "height_km": 476.25348524888716,
      "semi_major_axis_km": 6853.369429030307,
      "eccentricity": 0.0001221,
      "inclination_deg": 53.1602,
      "raan_deg": 18.5229,
      "arg_perigee_deg": 98.444,
      "mean_anomaly_deg": 261.6699,
      "mean_motion_rev_day": 15.30194186
    },
    {
      "epoch": "2026-03-31T18:57:21.750912Z",
      "apogee_km": 476.02446018618684,
      "perigee_km": 474.5112283965673,
      "latitude_deg": -7.220572511136392e-06,
      "longitude_deg": -102.26499928092619,
      "height_km": 476.13210074088215,
      "semi_major_axis_km": 6853.404844291376,
      "eccentricity": 0.0001104,
      "inclination_deg": 53.1604,
      "raan_deg": 11.2378,
      "arg_perigee_deg": 87.4181,
      "mean_anomaly_deg": 272.6946,
      "mean_motion_rev_day": 15.30182325
    },
    {
      "epoch": "2026-04-01T04:21:41.249952Z",
      "apogee_km": 476.0171439197784,
      "perigee_km": 474.51761904111027,
      "latitude_deg": -5.436256710634986e-06,
      "longitude_deg": 114.45048984160186,
      "height_km": 476.1501190888041,
      "semi_major_axis_km": 6853.4043814804445,
      "eccentricity": 0.0001094,
      "inclination_deg": 53.1618,
      "raan_deg": 9.4208,
      "arg_perigee_deg": 88.7952,
      "mean_anomaly_deg": 271.3174,
      "mean_motion_rev_day": 15.3018248
    },
    {
      "epoch": "2026-04-02T17:58:57.528480Z",
      "apogee_km": 476.12614416059387,
      "perigee_km": 474.26752002533067,
      "latitude_deg": 1.2981674141992153e-05,
      "longitude_deg": -98.69216941535035,
      "height_km": 476.25599594018166,
      "semi_major_axis_km": 6853.333832092962,
      "eccentricity": 0.0001356,
      "inclination_deg": 53.1626,
      "raan_deg": 2.141,
      "arg_perigee_deg": 99.9705,
      "mean_anomaly_deg": 260.1449,
      "mean_motion_rev_day": 15.30206108
    },
    {
      "epoch": "2026-04-02T22:41:07.006272Z",
      "apogee_km": 476.1334963329946,
      "perigee_km": 474.25307956858614,
      "latitude_deg": 3.2124509353693404e-06,
      "longitude_deg": -170.33549761955558,
      "height_km": 476.32836496519855,
      "semi_major_axis_km": 6853.33028795079,
      "eccentricity": 0.00013719,
      "inclination_deg": 53.1626,
      "raan_deg": 1.2303,
      "arg_perigee_deg": 104.5878,
      "mean_anomaly_deg": 255.5275,
      "mean_motion_rev_day": 15.30207295
    },
    {
      "epoch": "2026-04-03T11:13:32.377440Z",
      "apogee_km": 475.86800007424426,
      "perigee_km": 474.5285842247458,
      "latitude_deg": -1.671865186532916e-05,
      "longitude_deg": -1.3812408073498457,
      "height_km": 476.03359975351066,
      "semi_major_axis_km": 6853.335292149494,
      "eccentricity": 9.772e-05,
      "inclination_deg": 53.1619,
      "raan_deg": 358.8053,
      "arg_perigee_deg": 84.5696,
      "mean_anomaly_deg": 275.5416,
      "mean_motion_rev_day": 15.30205619
    },
    {
      "epoch": "2026-04-04T02:54:04.094208Z",
      "apogee_km": 476.018876552057,
      "perigee_km": 474.3876445032465,
      "latitude_deg": -4.370295448473253e-05,
      "longitude_deg": 119.80511677340206,
      "height_km": 476.1771021839608,
      "semi_major_axis_km": 6853.3402605276515,
      "eccentricity": 0.00011901,
      "inclination_deg": 53.1609,
      "raan_deg": 355.7676,
      "arg_perigee_deg": 95.3147,
      "mean_anomaly_deg": 264.7989,
      "mean_motion_rev_day": 15.30203955
    },
    {
      "epoch": "2026-04-05T10:15:08.438400Z",
      "apogee_km": 476.3193845633514,
      "perigee_km": 474.1879800611523,
      "latitude_deg": -3.079649513996935e-05,
      "longitude_deg": 2.1848756805592955,
      "height_km": 476.0128882837318,
      "semi_major_axis_km": 6853.390682312252,
      "eccentricity": 0.0001555,
      "inclination_deg": 53.1624,
      "raan_deg": 349.703,
      "arg_perigee_deg": 82.519,
      "mean_anomaly_deg": 277.5987,
      "mean_motion_rev_day": 15.30187068
    },
    {
      "epoch": "2026-04-05T21:13:31.378080Z",
      "apogee_km": 476.6242526768001,
      "perigee_km": 473.9144158122399,
      "latitude_deg": 4.563596586101729e-06,
      "longitude_deg": -164.98582748624145,
      "height_km": 476.09519994372033,
      "semi_major_axis_km": 6853.40633424452,
      "eccentricity": 0.0001977,
      "inclination_deg": 53.1613,
      "raan_deg": 347.5785,
      "arg_perigee_deg": 86.9817,
      "mean_anomaly_deg": 273.141,
      "mean_motion_rev_day": 15.30181826
    },
    {
      "epoch": "2026-04-06T01:55:40.924992Z",
      "apogee_km": 476.1654812020379,
      "perigee_km": 474.3772898860816,
      "latitude_deg": -1.5002244134874009e-05,
      "longitude_deg": 123.37164767885487,
      "height_km": 476.15115808153087,
      "semi_major_axis_km": 6853.4083855440595,
      "eccentricity": 0.00013046,
      "inclination_deg": 53.1611,
      "raan_deg": 346.6689,
      "arg_perigee_deg": 88.8228,
      "mean_anomaly_deg": 271.2922,
      "mean_motion_rev_day": 15.30181139
    },
    {
      "epoch": "2026-04-07T01:26:28.800384Z",
      "apogee_km": 476.15362461235054,
      "perigee_km": 474.31253527407443,
      "latitude_deg": 2.734254101452788e-05,
      "longitude_deg": 125.15663910300994,
      "height_km": 476.02843099899655,
      "semi_major_axis_km": 6853.370079943213,
      "eccentricity": 0.00013432,
      "inclination_deg": 53.1609,
      "raan_deg": 342.119,
      "arg_perigee_deg": 83.5928,
      "mean_anomaly_deg": 276.5226,
      "mean_motion_rev_day": 15.30193968
    },
    {
      "epoch": "2026-04-07T20:15:07.766496Z",
      "apogee_km": 476.18682150717814,
      "perigee_km": 474.32543993287345,
      "latitude_deg": 6.304140761164987e-05,
      "longitude_deg": -161.41932848510632,
      "height_km": 476.0443772825142,
      "semi_major_axis_km": 6853.3931307200255,
      "eccentricity": 0.0001358,
      "inclination_deg": 53.1601,
      "raan_deg": 338.4779,
      "arg_perigee_deg": 83.2297,
      "mean_anomaly_deg": 276.8859,
      "mean_motion_rev_day": 15.30186248
    },
    {
      "epoch": "2026-04-07T21:49:10.955712Z",
      "apogee_km": 476.18817122387827,
      "perigee_km": 474.31582534954487,
      "latitude_deg": -3.4656039709870603e-07,
      "longitude_deg": 174.69975860074192,
      "height_km": 476.03353214889495,
      "semi_major_axis_km": 6853.388998286711,
      "eccentricity": 0.0001366,
      "inclination_deg": 53.1603,
      "raan_deg": 338.1747,
      "arg_perigee_deg": 82.8543,
      "mean_anomaly_deg": 277.2613,
      "mean_motion_rev_day": 15.30187632
    },
    {
      "epoch": "2026-04-09T19:16:41.302848Z",
      "apogee_km": 476.27249408075477,
      "perigee_km": 474.0383207559362,
      "latitude_deg": 1.1654703129948624e-05,
      "longitude_deg": -157.84159592095492,
      "height_km": 475.4238003406632,
      "semi_major_axis_km": 6853.292407418346,
      "eccentricity": 0.000163,
      "inclination_deg": 53.1598,
      "raan_deg": 329.3767,
      "arg_perigee_deg": 55.6959,
      "mean_anomaly_deg": 304.4196,
      "mean_motion_rev_day": 15.30219982
    },
    {
      "epoch": "2026-04-10T07:48:49.909824Z",
      "apogee_km": 474.80995611777325,
      "perigee_km": 473.34495266742306,
      "latitude_deg": 5.998166226314163e-07,
      "longitude_deg": 11.180608195885913,
      "height_km": 475.03480280662797,
      "semi_major_axis_km": 6852.214454392598,
      "eccentricity": 0.0001069,
      "inclination_deg": 53.1592,
      "raan_deg": 326.9496,
      "arg_perigee_deg": 94.6148,
      "mean_anomaly_deg": 265.4975,
      "mean_motion_rev_day": 15.30581085
    },
    {
      "epoch": "2026-04-11T20:00:01.000224Z",
      "apogee_km": 471.4477341836837,
      "perigee_km": 469.9656444093207,
      "latitude_deg": 29.03580345239632,
      "longitude_deg": -155.68825422845208,
      "height_km": 471.8692986048576,
      "semi_major_axis_km": 6848.843689296502,
      "eccentricity": 0.0001082,
      "inclination_deg": 53.1594,
      "raan_deg": 319.9319,
      "arg_perigee_deg": 96.058,
      "mean_anomaly_deg": 301.165,
      "mean_motion_rev_day": 15.31711173
    }
  ]
}